OBJECT_NAME,OBJECT_ID,EPOCH,MEAN_MOTION,ECCENTRICITY,INCLINATION,RA_OF_ASC_NODE,ARG_OF_PERICENTER,MEAN_ANOMALY,EPHEMERIS_TYPE,CLASSIFICATION_TYPE,NORAD_CAT_ID,ELEMENT_SET_NO,REV_AT_EPOCH,BSTAR,MEAN_MOTION_DOT,MEAN_MOTION_DDOT
STARLINK-6111,2023-090B,2024-01-20T14:16:44.738400,15.02535458,0.0001253,43.0041,188.3507,276.6199,83.4501,0,U,57102,999,3321,4.2396e-05,3.69e-06,0.0
STARLINK-6123,2023-090C,2024-01-20T14:11:04.840800,15.02537109,0.0001301,43.0026,162.289,278.5948,81.4747,0,U,57103,999,3351,9.5008e-05,1.08e-05,0.0
STARLINK-6130,2023-090D,2024-01-20T14:19:56.472960,15.02534481,0.0001209,43.004,188.3672,269.9748,90.0956,0,U,57104,999,3321,2.2937e-05,1.06e-06,0.0
STARLINK-6097,2023-090E,2024-01-20T14:15:08.372160,15.02535373,0.0001272,43.003,188.3418,270.0451,90.0246,0,U,57105,999,3321,-4.9101e-06,-2.7e-06,0.0
STARLINK-6118,2023-090F,2024-01-20T18:54:19.968768,15.02541131,0.0001351,43.0027,187.2147,268.3335,91.7352,0,U,57106,999,3210,0.00018308,2.271e-05,0.0
STARLINK-6131,2023-090G,2024-01-20T13:47:58.205472,15.02535162,0.0001411,43.0021,188.1971,264.9686,95.0996,0,U,57107,999,3321,2.0427e-05,7.2e-07,0.0
STARLINK-6099,2023-090H,2024-01-20T14:10:20.838144,15.02533469,0.0001259,43.0034,188.3141,270.2199,89.8499,0,U,57108,999,3321,1.3428e-05,-2.2e-07,0.0
STARLINK-6139,2023-090J,2024-01-20T13:55:57.379872,15.02536696,0.0001095,43.0011,188.2392,261.0973,98.9745,0,U,57109,999,3321,2.6922e-06,-1.67e-06,0.0
STARLINK-6134,2023-090K,2024-01-20T14:11:57.256224,15.0253054,0.0001448,43.0041,188.3248,274.4708,85.5969,0,U,57110,999,3321,1.3206e-05,-2.5e-07,0.0
STARLINK-6140,2023-090L,2024-01-20T13:38:23.394912,15.02533568,0.0001134,43.0032,188.1472,271.071,89.0003,0,U,57111,999,3321,-3.965e-06,-2.57e-06,0.0
STARLINK-6141,2023-090M,2024-01-20T14:02:21.028704,15.02538031,0.0001428,43.0026,188.2735,270.7829,89.2849,0,U,57112,999,3321,0.00010353,1.195e-05,0.0
STARLINK-6142,2023-090N,2024-01-20T13:46:22.011168,15.02530155,0.0001322,43.0027,188.1892,269.3175,90.7516,0,U,57113,999,3321,-0.00017773,-2.603e-05,0.0
STARLINK-6125,2023-090P,2024-01-20T13:41:34.634400,15.02538444,0.0001376,43.0027,188.1632,270.1996,89.8688,0,U,57114,999,3321,5.616e-05,5.55e-06,0.0
STARLINK-6085,2023-090Q,2024-01-20T13:33:35.174880,15.02533289,0.0001148,43.0012,188.12,260.4701,99.6012,0,U,57115,999,3321,-4.8617e-05,-8.6e-06,0.0
STARLINK-6129,2023-090R,2024-01-20T13:51:10.039392,15.02534533,0.0001331,43.0026,188.2151,271.1906,88.8784,0,U,57116,999,3321,3.0398e-05,2.07e-06,0.0
STARLINK-6148,2023-090S,2024-01-20T19:51:41.837184,15.02540315,0.0001384,43.0036,186.6509,269.4756,90.5928,0,U,57117,999,3211,8.0299e-05,8.81e-06,0.0
STARLINK-6151,2023-090T,2024-01-20T13:36:46.929312,15.02536317,0.0001171,43.0018,188.1367,265.617,94.4538,0,U,57118,999,3321,3.9912e-05,3.36e-06,0.0
STARLINK-6150,2023-090U,2024-01-20T13:22:23.925504,15.02534935,0.0001155,43.0034,188.0627,269.9544,90.1166,0,U,57119,999,3321,1.1803e-06,-1.88e-06,0.0
STARLINK-6147,2023-090V,2024-01-20T19:53:17.810304,15.02539621,0.0001235,43.0036,186.6599,270.3161,89.754,0,U,57120,999,3211,8.7574e-05,9.8e-06,0.0
STARLINK-6152,2023-090W,2024-01-20T19:32:33.118080,15.02522209,0.000133,43.0038,186.5503,277.166,82.9031,0,U,57121,999,3211,-4.2185e-05,-7.73e-06,0.0
STARLINK-6149,2023-090X,2024-01-20T11:41:52.767456,15.02533195,0.0001109,43.0032,188.3986,274.9556,85.1159,0,U,57122,999,3320,5.0854e-05,4.83e-06,0.0
STARLINK-6154,2023-090Y,2024-01-20T13:04:49.060128,15.02533581,0.0001132,43.0026,187.9681,261.4178,98.6536,0,U,57123,999,3302,4.1766e-05,3.61e-06,0.0
STARLINK-6146,2023-090Z,2024-01-20T19:37:21.209376,15.02510647,0.0001116,43.0039,186.5765,275.4915,84.5801,0,U,57124,999,3211,-0.00020299,-2.943e-05,0.0
STARLINK-6100,2023-090AA,2024-01-20T11:08:50.946720,15.02522722,0.0001342,43.0029,176.0665,288.5734,71.4963,0,U,57125,999,3315,0.00010117,1.163e-05,0.0
STARLINK-6167,2023-090AB,2024-01-20T13:12:48.390912,15.02535278,0.0001497,43.0027,188.0128,274.3612,85.706,0,U,57126,999,3321,5.4172e-05,5.28e-06,0.0
STARLINK-6165,2023-090AC,2024-01-20T12:58:25.316256,15.02533394,0.0001447,43.003,187.9369,276.9478,83.12,0,U,57127,999,3302,-4.4405e-05,-8.03e-06,0.0
STARLINK-6163,2023-090AD,2024-01-20T19:30:55.341792,15.02536874,0.0001252,43.0022,186.5403,260.9743,99.0957,0,U,57128,999,3211,9.8762e-05,1.131e-05,0.0
STARLINK-6170,2023-090AE,2024-01-20T13:05:20.934816,15.02538577,0.0001302,43.0017,175.8133,271.2398,88.8295,0,U,57129,999,3316,0.0001773,2.192e-05,0.0
STARLINK-6172,2023-090AF,2024-01-20T13:00:01.544256,15.02533462,0.0001332,43.004,187.9449,275.6531,84.416,0,U,57130,999,3302,-3.0116e-06,-2.44e-06,0.0
STARLINK-6162,2023-090AG,2024-01-20T13:00:33.911424,15.02526233,0.0001301,43.0019,175.7881,272.0207,88.0486,0,U,57131,999,3316,-9.1315e-05,-1.437e-05,0.0
