STARLINK-6111           
1 57102U 23090B   24020.59496225  .00000369  00000+0  42396-4 0  9994
2 57102  43.0041 188.3507 0001253 276.6199  83.4501 15.02535458 33210
STARLINK-6123           
1 57103U 23090C   24020.59102825  .00001080  00000+0  95008-4 0  9994
2 57103  43.0026 162.2890 0001301 278.5948  81.4747 15.02537109 33515
STARLINK-6130           
1 57104U 23090D   24020.59718140  .00000106  00000+0  22937-4 0  9997
2 57104  43.0040 188.3672 0001209 269.9748  90.0956 15.02534481 33213
STARLINK-6097           
1 57105U 23090E   24020.59384690 -.00000270  00000+0 -49101-5 0  9994
2 57105  43.0030 188.3418 0001272 270.0451  90.0246 15.02535373 33218
STARLINK-6118           
1 57106U 23090F   24020.78773112  .00002271  00000+0  18308-3 0  9991
2 57106  43.0027 187.2147 0001351 268.3335  91.7352 15.02541131 32103
STARLINK-6131           
1 57107U 23090G   24020.57497923  .00000072  00000+0  20427-4 0  9995
2 57107  43.0021 188.1971 0001411 264.9686  95.0996 15.02535162 33212
STARLINK-6099           
1 57108U 23090H   24020.59051896 -.00000022  00000+0  13428-4 0  9992
2 57108  43.0034 188.3141 0001259 270.2199  89.8499 15.02533469 33214
STARLINK-6139           
1 57109U 23090J   24020.58052523 -.00000167  00000+0  26922-5 0  9994
2 57109  43.0011 188.2392 0001095 261.0973  98.9745 15.02536696 33213
STARLINK-6134           
1 57110U 23090K   24020.59163491 -.00000025  00000+0  13206-4 0  9997
2 57110  43.0041 188.3248 0001448 274.4708  85.5969 15.02530540 33217
STARLINK-6140           
1 57111U 23090L   24020.56832633 -.00000257  00000+0 -39650-5 0  9996
2 57111  43.0032 188.1472 0001134 271.0710  89.0003 15.02533568 33214
STARLINK-6141           
1 57112U 23090M   24020.58496561  .00001195  00000+0  10353-3 0  9992
2 57112  43.0026 188.2735 0001428 270.7829  89.2849 15.02538031 33214
STARLINK-6142           
1 57113U 23090N   24020.57386587 -.00002603  00000+0 -17773-3 0  9998
2 57113  43.0027 188.1892 0001322 269.3175  90.7516 15.02530155 33217
STARLINK-6125           
1 57114U 23090P   24020.57053975  .00000555  00000+0  56160-4 0  9997
2 57114  43.0027 188.1632 0001376 270.1996  89.8688 15.02538444 33218
STARLINK-6085           
1 57115U 23090Q   24020.56499045 -.00000860  00000+0 -48617-4 0  9998
2 57115  43.0012 188.1200 0001148 260.4701  99.6012 15.02533289 33219
STARLINK-6129           
1 57116U 23090R   24020.57719953  .00000207  00000+0  30398-4 0  9993
2 57116  43.0026 188.2151 0001331 271.1906  88.8784 15.02534533 33210
STARLINK-6148           
1 57117U 23090S   24020.82756756  .00000881  00000+0  80299-4 0  9997
2 57117  43.0036 186.6509 0001384 269.4756  90.5928 15.02540315 32115
STARLINK-6151           
1 57118U 23090T   24020.56720983  .00000336  00000+0  39912-4 0  9993
2 57118  43.0018 188.1367 0001171 265.6170  94.4538 15.02536317 33216
STARLINK-6150           
1 57119U 23090U   24020.55722136 -.00000188  00000+0  11803-5 0  9991
2 57119  43.0034 188.0627 0001155 269.9544  90.1166 15.02534935 33211
STARLINK-6147           
1 57120U 23090V   24020.82867836  .00000980  00000+0  87574-4 0  9996
2 57120  43.0036 186.6599 0001235 270.3161  89.7540 15.02539621 32112
STARLINK-6152           
1 57121U 23090W   24020.81427220 -.00000773  00000+0 -42185-4 0  9996
2 57121  43.0038 186.5503 0001330 277.1660  82.9031 15.02522209 32118
STARLINK-6149           
1 57122U 23090X   24020.48741629  .00000483  00000+0  50854-4 0  9990
2 57122  43.0032 188.3986 0001109 274.9556  85.1159 15.02533195 33204
STARLINK-6154           
1 57123U 23090Y   24020.54501227  .00000361  00000+0  41766-4 0  9993
2 57123  43.0026 187.9681 0001132 261.4178  98.6536 15.02533581 33029
STARLINK-6146           
1 57124U 23090Z   24020.81760659 -.00002943  00000+0 -20299-3 0  9997
2 57124  43.0039 186.5765 0001116 275.4915  84.5801 15.02510647 32114
STARLINK-6100           
1 57125U 23090AA  24020.46447855  .00001163  00000+0  10117-3 0  9998
2 57125  43.0029 176.0665 0001342 288.5734  71.4963 15.02522722 33158
STARLINK-6167           
1 57126U 23090AB  24020.55056008  .00000528  00000+0  54172-4 0  9999
2 57126  43.0027 188.0128 0001497 274.3612  85.7060 15.02535278 33216
STARLINK-6165           
1 57127U 23090AC  24020.54057079 -.00000803  00000+0 -44405-4 0  9994
2 57127  43.0030 187.9369 0001447 276.9478  83.1200 15.02533394 33023
STARLINK-6163           
1 57128U 23090AD  24020.81314053  .00001131  00000+0  98762-4 0  9991
2 57128  43.0022 186.5403 0001252 260.9743  99.0957 15.02536874 32111
STARLINK-6170           
1 57129U 23090AE  24020.54538119  .00002192  00000+0  17730-3 0  9996
2 57129  43.0017 175.8133 0001302 271.2398  88.8295 15.02538577 33163
STARLINK-6172           
1 57130U 23090AF  24020.54168454 -.00000244  00000+0 -30116-5 0  9992
2 57130  43.0040 187.9449 0001332 275.6531  84.4160 15.02533462 33021
STARLINK-6162           
1 57131U 23090AG  24020.54205916 -.00001437  00000+0 -91315-4 0  9990
2 57131  43.0019 175.7881 0001301 272.0207  88.0486 15.02526233 33164
